[Satellite]
VERSION=1.1
NAME=SNUSat 2
NICKNAME=SNUSat 2
TLE1=1 43782U 18099AA  19311.14910241  .00000686  00000-0  67696-4 0  9996
TLE2=2 43782  97.7324  21.2473 0012277 202.9322 157.1352 14.95122735 50554
STATUS=0
